[{"OBJECT_NAME":"POLYITAN-1","OBJECT_ID":"2014-033AJ","EPOCH":"2026-03-09T22:27:50.258304","MEAN_MOTION":15.29568085,"ECCENTRICITY":0.00093607,"INCLINATION":98.1053,"RA_OF_ASC_NODE":86.0432,"ARG_OF_PERICENTER":127.248,"MEAN_ANOMALY":232.9614,"EPHEMERIS_TYPE":0,"CLASSIFICATION_TYPE":"U","NORAD_CAT_ID":40042,"ELEMENT_SET_NO":999,"REV_AT_EPOCH":63840,"BSTAR":0.00083772474,"MEAN_MOTION_DOT":0.00024003,"MEAN_MOTION_DDOT":0},{"OBJECT_NAME":"STARLINK-35563","OBJECT_ID":"2025-236B","EPOCH":"2026-03-09T11:36:44.379936","MEAN_MOTION":15.30195,"ECCENTRICITY":0.00015405,"INCLINATION":53.1602,"RA_OF_ASC_NODE":104.7929,"ARG_OF_PERICENTER":70.0195,"MEAN_ANOMALY":290.0972,"EPHEMERIS_TYPE":0,"CLASSIFICATION_TYPE":"U","NORAD_CAT_ID":66087,"ELEMENT_SET_NO":999,"REV_AT_EPOCH":2285,"BSTAR":0.00096792196,"MEAN_MOTION_DOT":0.00028413,"MEAN_MOTION_DDOT":0}]
